{"type": "FeatureCollection", "features": [ {"type": "Feature", "properties": {"norad_id": 66685, "name": "TRANSPORTER-15 V", "group": "last-30-days", "lat": 41.864812218647714, "lon": -106.71100076277467, "alt_km": 512.2507397193749, "timestamp": "2025-12-20T22:39:09.406586+00:00", "meta": {"OBJECT_NAME": "TRANSPORTER-15 V", "OBJECT_ID": "2025-276V", "EPOCH": "2025-12-20T14:08:04.479072", "MEAN_MOTION": 15.17402165, "ECCENTRICITY": 0.00038513, "INCLINATION": 97.443, "RA_OF_ASC_NODE": 66.2124, "ARG_OF_PERICENTER": 274.799, "MEAN_ANOMALY": 85.2804, "EPHEMERIS_TYPE": 0, "CLASSIFICATION_TYPE": "U", "NORAD_CAT_ID": 66685, "ELEMENT_SET_NO": 999, "REV_AT_EPOCH": 331, "BSTAR": 0.00059507547, "MEAN_MOTION_DOT": 0.00011839, "MEAN_MOTION_DDOT": 0}, "tle": {"line1": "1 66685U 25276V   25354.58894073  .00011839  00000+0  59508-3 0  9997", "line2": "2 66685  97.4430  66.2124 0003851 274.7990  85.2804 15.17402165  3312"}}, "geometry": {"type": "Point", "coordinates": [-106.71100076277467, 41.864812218647714]}}, {"type": "Feature", "properties": {"norad_id": 66686, "name": "TRANSPORTER-15 W", "group": "last-30-days", "lat": 58.26218785957607, "lon": -101.22788288471533, "alt_km": 511.2508371166814, "timestamp": "2025-12-20T22:39:09.406595+00:00", "meta": {"OBJECT_NAME": "TRANSPORTER-15 W", "OBJECT_ID": "2025-276W", "EPOCH": "2025-12-20T03:07:26.447808", "MEAN_MOTION": 15.16972854, "ECCENTRICITY": 0.00040006, "INCLINATION": 97.4465, "RA_OF_ASC_NODE": 65.7648, "ARG_OF_PERICENTER": 256.2752, "MEAN_ANOMALY": 103.8036, "EPHEMERIS_TYPE": 0, "CLASSIFICATION_TYPE": "U", "NORAD_CAT_ID": 66686, "ELEMENT_SET_NO": 999, "REV_AT_EPOCH": 324, "BSTAR": 0.00026846338, "MEAN_MOTION_DOT": 5.235e-05, "MEAN_MOTION_DDOT": 0}, "tle": {"line1": "1 66686U 25276W   25354.13016722  .00005235  00000+0  26846-3 0  9998", "line2": "2 66686  97.4465  65.7648 0004000 256.2752 103.8036 15.16972854  3246"}}, "geometry": {"type": "Point", "coordinates": [-101.22788288471533, 58.26218785957607]}}, {"type": "Feature", "properties": {"norad_id": 66687, "name": "TRANSPORTER-15 X", "group": "last-30-days", "lat": 81.62114524510893, "lon": -50.941558795405946, "alt_km": 503.59628017289106, "timestamp": "2025-12-20T22:39:09.406604+00:00", "meta": {"OBJECT_NAME": "TRANSPORTER-15 X", "OBJECT_ID": "2025-276X", "EPOCH": "2025-12-20T14:19:25.467456", "MEAN_MOTION": 15.16643007, "ECCENTRICITY": 0.00084694, "INCLINATION": 97.44, "RA_OF_ASC_NODE": 66.1925, "ARG_OF_PERICENTER": 62.8763, "MEAN_ANOMALY": 297.3333, "EPHEMERIS_TYPE": 0, "CLASSIFICATION_TYPE": "U", "NORAD_CAT_ID": 66687, "ELEMENT_SET_NO": 999, "REV_AT_EPOCH": 331, "BSTAR": 0.00039149034, "MEAN_MOTION_DOT": 7.6e-05, "MEAN_MOTION_DDOT": 0}, "tle": {"line1": "1 66687U 25276X   25354.59682254  .00007600  00000+0  39149-3 0  9996", "line2": "2 66687  97.4400  66.1925 0008469  62.8763 297.3333 15.16643007  3317"}}, "geometry": {"type": "Point", "coordinates": [-50.941558795405946, 81.62114524510893]}}, {"type": "Feature", "properties": {"norad_id": 66688, "name": "TRANSPORTER-15 Y", "group": "last-30-days", "lat": 53.91893742461102, "lon": -103.10307401068789, "alt_km": 511.3590686171556, "timestamp": "2025-12-20T22:39:09.406613+00:00", "meta": {"OBJECT_NAME": "TRANSPORTER-15 Y", "OBJECT_ID": "2025-276Y", "EPOCH": "2025-12-20T11:01:13.877760", "MEAN_MOTION": 15.17049521, "ECCENTRICITY": 0.00035983, "INCLINATION": 97.4443, "RA_OF_ASC_NODE": 66.0841, "ARG_OF_PERICENTER": 258.9817, "MEAN_ANOMALY": 101.1011, "EPHEMERIS_TYPE": 0, "CLASSIFICATION_TYPE": "U", "NORAD_CAT_ID": 66688, "ELEMENT_SET_NO": 999, "REV_AT_EPOCH": 329, "BSTAR": 0.00032195148, "MEAN_MOTION_DOT": 6.306e-05, "MEAN_MOTION_DDOT": 0}, "tle": {"line1": "1 66688U 25276Y   25354.45918840  .00006306  00000+0  32195-3 0  9991", "line2": "2 66688  97.4443  66.0841 0003598 258.9817 101.1011 15.17049521  3291"}}, "geometry": {"type": "Point", "coordinates": [-103.10307401068789, 53.91893742461102]}}, {"type": "Feature", "properties": {"norad_id": 66689, "name": "TRANSPORTER-15 Z", "group": "last-30-days", "lat": 36.79530232735052, "lon": -107.82461234836383, "alt_km": 512.4435621139619, "timestamp": "2025-12-20T22:39:09.406622+00:00", "meta": {"OBJECT_NAME": "TRANSPORTER-15 Z", "OBJECT_ID": "2025-276Z", "EPOCH": "2025-12-20T14:06:39.600576", "MEAN_MOTION": 15.17187456, "ECCENTRICITY": 0.00012554, "INCLINATION": 97.4425, "RA_OF_ASC_NODE": 66.2147, "ARG_OF_PERICENTER": 282.0024, "MEAN_ANOMALY": 78.1069, "EPHEMERIS_TYPE": 0, "CLASSIFICATION_TYPE": "U", "NORAD_CAT_ID": 66689, "ELEMENT_SET_NO": 999, "REV_AT_EPOCH": 331, "BSTAR": 0.0001332624, "MEAN_MOTION_DOT": 2.58e-05, "MEAN_MOTION_DDOT": 0}, "tle": {"line1": "1 66689U 25276Z   25354.58795834  .00002580  00000+0  13326-3 0  9997", "line2": "2 66689  97.4425  66.2147 0001255 282.0024  78.1069 15.17187456  3318"}}, "geometry": {"type": "Point", "coordinates": [-107.82461234836383, 36.79530232735052]}}, {"type": "Feature", "properties": {"norad_id": 66690, "name": "TRANSPORTER-15 AA", "group": "last-30-days", "lat": 54.08912877456407, "lon": -103.05291614363229, "alt_km": 511.3629704561654, "timestamp": "2025-12-20T22:39:09.406631+00:00", "meta": {"OBJECT_NAME": "TRANSPORTER-15 AA", "OBJECT_ID": "2025-276AA", "EPOCH": "2025-12-20T01:31:22.789344", "MEAN_MOTION": 15.17032749, "ECCENTRICITY": 0.00032693, "INCLINATION": 97.4408, "RA_OF_ASC_NODE": 65.6855, "ARG_OF_PERICENTER": 265.4105, "MEAN_ANOMALY": 94.6755, "EPHEMERIS_TYPE": 0, "CLASSIFICATION_TYPE": "U", "NORAD_CAT_ID": 66690, "ELEMENT_SET_NO": 999, "REV_AT_EPOCH": 323, "BSTAR": 0.00037155811, "MEAN_MOTION_DOT": 7.285e-05, "MEAN_MOTION_DDOT": 0}, "tle": {"line1": "1 66690U 25276AA  25354.06345821  .00007285  00000+0  37156-3 0  9993", "line2": "2 66690  97.4408  65.6855 0003269 265.4105  94.6755 15.17032749  3232"}}, "geometry": {"type": "Point", "coordinates": [-103.05291614363229, 54.08912877456407]}}, {"type": "Feature", "properties": {"norad_id": 66691, "name": "TRANSPORTER-15 AB", "group": "last-30-days", "lat": 44.95066256714443, "lon": -105.94116348225712, "alt_km": 511.754905663337, "timestamp": "2025-12-20T22:39:09.406640+00:00", "meta": {"OBJECT_NAME": "TRANSPORTER-15 AB", "OBJECT_ID": "2025-276AB", "EPOCH": "2025-12-20T10:58:54.675264", "MEAN_MOTION": 15.17249341, "ECCENTRICITY": 0.00036214, "INCLINATION": 97.4428, "RA_OF_ASC_NODE": 66.0825, "ARG_OF_PERICENTER": 260.5662, "MEAN_ANOMALY": 99.5162, "EPHEMERIS_TYPE": 0, "CLASSIFICATION_TYPE": "U", "NORAD_CAT_ID": 66691, "ELEMENT_SET_NO": 999, "REV_AT_EPOCH": 329, "BSTAR": 0.00036834848, "MEAN_MOTION_DOT": 7.267e-05, "MEAN_MOTION_DDOT": 0}, "tle": {"line1": "1 66691U 25276AB  25354.45757726  .00007267  00000+0  36835-3 0  9991", "line2": "2 66691  97.4428  66.0825 0003621 260.5662  99.5162 15.17249341  3293"}}, "geometry": {"type": "Point", "coordinates": [-105.94116348225712, 44.95066256714443]}}, {"type": "Feature", "properties": {"norad_id": 66692, "name": "TRANSPORTER-15 AC", "group": "last-30-days", "lat": 28.87017009232552, "lon": -109.29515819588272, "alt_km": 513.2106729317602, "timestamp": "2025-12-20T22:39:09.406651+00:00", "meta": {"OBJECT_NAME": "TRANSPORTER-15 AC", "OBJECT_ID": "2025-276AC", "EPOCH": "2025-12-20T14:04:36.458976", "MEAN_MOTION": 15.17376001, "ECCENTRICITY": 0.00017709, "INCLINATION": 97.4431, "RA_OF_ASC_NODE": 66.2203, "ARG_OF_PERICENTER": 278.2736, "MEAN_ANOMALY": 81.8297, "EPHEMERIS_TYPE": 0, "CLASSIFICATION_TYPE": "U", "NORAD_CAT_ID": 66692, "ELEMENT_SET_NO": 999, "REV_AT_EPOCH": 331, "BSTAR": 0.00037692887, "MEAN_MOTION_DOT": 7.464e-05, "MEAN_MOTION_DDOT": 0}, "tle": {"line1": "1 66692U 25276AC  25354.58653309  .00007464  00000+0  37693-3 0  9990", "line2": "2 66692  97.4431  66.2203 0001770 278.2736  81.8297 15.17376001  3311"}}, "geometry": {"type": "Point", "coordinates": [-109.29515819588272, 28.87017009232552]}}, {"type": "Feature", "properties": {"norad_id": 66693, "name": "TRANSPORTER-15 AD", "group": "last-30-days", "lat": 30.579056808191407, "lon": -109.02005959068227, "alt_km": 513.303123586511, "timestamp": "2025-12-20T22:39:09.406661+00:00", "meta": {"OBJECT_NAME": "TRANSPORTER-15 AD", "OBJECT_ID": "2025-276AD", "EPOCH": "2025-12-20T14:05:06.843264", "MEAN_MOTION": 15.17546324, "ECCENTRICITY": 0.00032957, "INCLINATION": 97.4387, "RA_OF_ASC_NODE": 66.2014, "ARG_OF_PERICENTER": 285.5921, "MEAN_ANOMALY": 74.4949, "EPHEMERIS_TYPE": 0, "CLASSIFICATION_TYPE": "U", "NORAD_CAT_ID": 66693, "ELEMENT_SET_NO": 999, "REV_AT_EPOCH": 331, "BSTAR": 0.00059652259, "MEAN_MOTION_DOT": 0.00011917, "MEAN_MOTION_DDOT": 0}, "tle": {"line1": "1 66693U 25276AD  25354.58688476  .00011917  00000+0  59652-3 0  9991", "line2": "2 66693  97.4387  66.2014 0003295 285.5921  74.4949 15.17546324  3312"}}, "geometry": {"type": "Point", "coordinates": [-109.02005959068227, 30.579056808191407]}}, {"type": "Feature", "properties": {"norad_id": 66694, "name": "YAM-9", "group": "last-30-days", "lat": 20.626696551789617, "lon": -110.6098574344927, "alt_km": 513.7296745260437, "timestamp": "2025-12-20T22:39:09.406670+00:00", "meta": {"OBJECT_NAME": "YAM-9", "OBJECT_ID": "2025-276AE", "EPOCH": "2025-12-20T10:52:33.721248", "MEAN_MOTION": 15.1752286, "ECCENTRICITY": 0.0001258, "INCLINATION": 97.442, "RA_OF_ASC_NODE": 66.0878, "ARG_OF_PERICENTER": 275.7311, "MEAN_ANOMALY": 84.3779, "EPHEMERIS_TYPE": 0, "CLASSIFICATION_TYPE": "U", "NORAD_CAT_ID": 66694, "ELEMENT_SET_NO": 999, "REV_AT_EPOCH": 329, "BSTAR": 0.00035335191, "MEAN_MOTION_DOT": 7.022e-05, "MEAN_MOTION_DDOT": 0}, "tle": {"line1": "1 66694U 25276AE  25354.45316807  .00007022  00000+0  35335-3 0  9998", "line2": "2 66694  97.4420  66.0878 0001258 275.7311  84.3779 15.17522860  3295"}}, "geometry": {"type": "Point", "coordinates": [-110.6098574344927, 20.626696551789617]}}]}